[{"OBJECT_NAME":"OBJECT E","OBJECT_ID":"2022-023E","EPOCH":"2026-03-09T23:07:18.009696","MEAN_MOTION":13.56268386,"ECCENTRICITY":0.01511306,"INCLINATION":63.4608,"RA_OF_ASC_NODE":212.7399,"ARG_OF_PERICENTER":348.7592,"MEAN_ANOMALY":11.0076,"EPHEMERIS_TYPE":0,"CLASSIFICATION_TYPE":"U","NORAD_CAT_ID":51950,"ELEMENT_SET_NO":999,"REV_AT_EPOCH":20857,"BSTAR":0.00011607077,"MEAN_MOTION_DOT":-5.0e-8,"MEAN_MOTION_DDOT":0},{"OBJECT_NAME":"COSMOS 864 DEB","OBJECT_ID":"1976-108C","EPOCH":"2026-03-09T21:29:15.499392","MEAN_MOTION":13.76053288,"ECCENTRICITY":0.00308346,"INCLINATION":82.94,"RA_OF_ASC_NODE":222.3165,"ARG_OF_PERICENTER":59.4706,"MEAN_ANOMALY":300.9488,"EPHEMERIS_TYPE":0,"CLASSIFICATION_TYPE":"U","NORAD_CAT_ID":43294,"ELEMENT_SET_NO":999,"REV_AT_EPOCH":61115,"BSTAR":0.00014276199,"MEAN_MOTION_DOT":1.55e-6,"MEAN_MOTION_DDOT":0}]
